QIANFAN-49              
1 62250U 24232P   26007.98498845  .00000040  00000+0  43131-4 0  9997
2 62250  89.0004  38.5862 0016009 116.4858 243.7938 13.50983101 71385
QIANFAN-50              
1 62251U 24232Q   26007.93564126  .00000045  00000+0  50094-4 0  9990
2 62251  89.0009  38.6008 0017642 118.0898 242.2039 13.50979932 71406
QIANFAN-51              
1 62252U 24232R   26007.91916676  .00000043  00000+0  47491-4 0  9995
2 62252  89.0003  38.5947 0015089 120.9424 239.3213 13.50982551 71392
QIANFAN-52              
1 62253U 24232S   26007.87394783  .00000041  00000+0  45215-4 0  9990
2 62253  88.9999  38.4719 0017191 114.5341 245.7605 13.50980609 71471
QIANFAN-53              
1 62254U 24232T   26007.92737632  .00000050  00000+0  57915-4 0  9991
2 62254  89.0007  38.5729 0016060 115.2088 245.0730 13.50983162 71442
QIANFAN-54              
1 62255U 24232U   26007.96850606  .00000054  00000+0  64820-4 0  9990
2 62255  88.9998  38.2449 0003442 128.4647 231.6814 13.50983564102954
QIANFAN-55              
1 62785U 25016A   26007.92041515  .00000182  00000+0  26359-3 0  9992
2 62785  88.9776 100.5101 0015547 270.7962  89.1408 13.50984891 50720
QIANFAN-56              
1 62786U 25016B   26007.93688593  .00000159  00000+0  22728-3 0  9997
2 62786  88.9750 100.3378 0014173 273.2060  86.7470 13.50987414 50779
